[{"OBJECT_NAME":"ONEWEB-0403","OBJECT_ID":"2021-132Q","EPOCH":"2025-10-08T06:48:15.686496","MEAN_MOTION":13.1868796,"ECCENTRICITY":0.00018363,"INCLINATION":87.9228,"RA_OF_ASC_NODE":25.4732,"ARG_OF_PERICENTER":97.6652,"MEAN_ANOMALY":262.4689,"EPHEMERIS_TYPE":0,"CLASSIFICATION_TYPE":"U","NORAD_CAT_ID":50483,"ELEMENT_SET_NO":999,"REV_AT_EPOCH":18839,"BSTAR":-1.2153875e-5,"MEAN_MOTION_DOT":8.0e-8,"MEAN_MOTION_DDOT":0},{"OBJECT_NAME":"ONEWEB-0404","OBJECT_ID":"2021-132R","EPOCH":"2025-10-08T07:45:31.083552","MEAN_MOTION":13.11416691,"ECCENTRICITY":0.00018371,"INCLINATION":87.8808,"RA_OF_ASC_NODE":71.237,"ARG_OF_PERICENTER":80.6988,"MEAN_ANOMALY":279.4348,"EPHEMERIS_TYPE":0,"CLASSIFICATION_TYPE":"U","NORAD_CAT_ID":50484,"ELEMENT_SET_NO":999,"REV_AT_EPOCH":18268,"BSTAR":0.0010957808,"MEAN_MOTION_DOT":4.01e-6,"MEAN_MOTION_DDOT":0},{"OBJECT_NAME":"ONEWEB-0405","OBJECT_ID":"2021-132S","EPOCH":"2025-10-08T07:09:39.208608","MEAN_MOTION":13.18688163,"ECCENTRICITY":0.00014613,"INCLINATION":87.9228,"RA_OF_ASC_NODE":25.4551,"ARG_OF_PERICENTER":98.9321,"MEAN_ANOMALY":261.1977,"EPHEMERIS_TYPE":0,"CLASSIFICATION_TYPE":"U","NORAD_CAT_ID":50485,"ELEMENT_SET_NO":999,"REV_AT_EPOCH":18879,"BSTAR":0.00013041108,"MEAN_MOTION_DOT":6.4e-7,"MEAN_MOTION_DDOT":0},{"OBJECT_NAME":"ONEWEB-0406","OBJECT_ID":"2021-132T","EPOCH":"2025-10-08T06:55:23.570400","MEAN_MOTION":13.18683813,"ECCENTRICITY":0.00022409,"INCLINATION":87.9232,"RA_OF_ASC_NODE":25.481,"ARG_OF_PERICENTER":92.5315,"MEAN_ANOMALY":267.6074,"EPHEMERIS_TYPE":0,"CLASSIFICATION_TYPE":"U","NORAD_CAT_ID":50486,"ELEMENT_SET_NO":999,"REV_AT_EPOCH":18842,"BSTAR":0.00014027658,"MEAN_MOTION_DOT":6.8e-7,"MEAN_MOTION_DDOT":0},{"OBJECT_NAME":"ONEWEB-0407","OBJECT_ID":"2021-132U","EPOCH":"2025-10-08T06:45:53.042688","MEAN_MOTION":13.18688323,"ECCENTRICITY":0.00016887,"INCLINATION":87.9228,"RA_OF_ASC_NODE":25.4669,"ARG_OF_PERICENTER":106.085,"MEAN_ANOMALY":254.0468,"EPHEMERIS_TYPE":0,"CLASSIFICATION_TYPE":"U","NORAD_CAT_ID":50487,"ELEMENT_SET_NO":999,"REV_AT_EPOCH":18836,"BSTAR":0.00014017467,"MEAN_MOTION_DOT":6.8e-7,"MEAN_MOTION_DDOT":0},{"OBJECT_NAME":"ONEWEB-0409","OBJECT_ID":"2021-132V","EPOCH":"2025-10-08T04:03:20.590848","MEAN_MOTION":13.11417198,"ECCENTRICITY":0.00019324,"INCLINATION":87.8817,"RA_OF_ASC_NODE":71.2278,"ARG_OF_PERICENTER":88.4864,"MEAN_ANOMALY":271.6485,"EPHEMERIS_TYPE":0,"CLASSIFICATION_TYPE":"U","NORAD_CAT_ID":50488,"ELEMENT_SET_NO":999,"REV_AT_EPOCH":18255,"BSTAR":0.00099285832,"MEAN_MOTION_DOT":3.65e-6,"MEAN_MOTION_DDOT":0},{"OBJECT_NAME":"ONEWEB-0412","OBJECT_ID":"2021-132W","EPOCH":"2025-10-08T06:29:16.639008","MEAN_MOTION":13.18686694,"ECCENTRICITY":0.00013898,"INCLINATION":87.9228,"RA_OF_ASC_NODE":25.4815,"ARG_OF_PERICENTER":101.1593,"MEAN_ANOMALY":258.9696,"EPHEMERIS_TYPE":0,"CLASSIFICATION_TYPE":"U","NORAD_CAT_ID":50489,"ELEMENT_SET_NO":999,"REV_AT_EPOCH":18845,"BSTAR":-9.911989e-6,"MEAN_MOTION_DOT":9.0e-8,"MEAN_MOTION_DDOT":0},{"OBJECT_NAME":"ONEWEB-0413","OBJECT_ID":"2021-132X","EPOCH":"2025-10-08T06:36:24.086592","MEAN_MOTION":13.18687635,"ECCENTRICITY":0.00014877,"INCLINATION":87.9228,"RA_OF_ASC_NODE":25.4977,"ARG_OF_PERICENTER":108.2376,"MEAN_ANOMALY":251.8918,"EPHEMERIS_TYPE":0,"CLASSIFICATION_TYPE":"U","NORAD_CAT_ID":50490,"ELEMENT_SET_NO":999,"REV_AT_EPOCH":18839,"BSTAR":0.00016692095,"MEAN_MOTION_DOT":7.9e-7,"MEAN_MOTION_DDOT":0},{"OBJECT_NAME":"ONEWEB-0414","OBJECT_ID":"2021-132Y","EPOCH":"2025-10-08T06:15:01.629792","MEAN_MOTION":13.18686362,"ECCENTRICITY":0.00015849,"INCLINATION":87.9228,"RA_OF_ASC_NODE":25.4593,"ARG_OF_PERICENTER":96.6174,"MEAN_ANOMALY":263.5139,"EPHEMERIS_TYPE":0,"CLASSIFICATION_TYPE":"U","NORAD_CAT_ID":50491,"ELEMENT_SET_NO":999,"REV_AT_EPOCH":18842,"BSTAR":0.0001368563,"MEAN_MOTION_DOT":6.7e-7,"MEAN_MOTION_DDOT":0},{"OBJECT_NAME":"ONEWEB-0417","OBJECT_ID":"2021-132Z","EPOCH":"2025-10-08T06:26:54.345984","MEAN_MOTION":13.18685987,"ECCENTRICITY":0.00019222,"INCLINATION":87.9225,"RA_OF_ASC_NODE":25.4911,"ARG_OF_PERICENTER":94.493,"MEAN_ANOMALY":265.6421,"EPHEMERIS_TYPE":0,"CLASSIFICATION_TYPE":"U","NORAD_CAT_ID":50492,"ELEMENT_SET_NO":999,"REV_AT_EPOCH":18840,"BSTAR":-0.00014814778,"MEAN_MOTION_DOT":-4.6e-7,"MEAN_MOTION_DDOT":0},{"OBJECT_NAME":"ONEWEB-0418","OBJECT_ID":"2021-132AA","EPOCH":"2025-10-08T06:40:57.741312","MEAN_MOTION":13.18686905,"ECCENTRICITY":0.00020736,"INCLINATION":87.9226,"RA_OF_ASC_NODE":25.4747,"ARG_OF_PERICENTER":88.1889,"MEAN_ANOMALY":271.9481,"EPHEMERIS_TYPE":0,"CLASSIFICATION_TYPE":"U","NORAD_CAT_ID":50493,"ELEMENT_SET_NO":999,"REV_AT_EPOCH":18846,"BSTAR":0.00011760692,"MEAN_MOTION_DOT":5.9e-7,"MEAN_MOTION_DDOT":0},{"OBJECT_NAME":"ONEWEB-0419","OBJECT_ID":"2021-132AB","EPOCH":"2025-10-08T07:07:16.945824","MEAN_MOTION":13.18687987,"ECCENTRICITY":0.00021521,"INCLINATION":87.9228,"RA_OF_ASC_NODE":25.4713,"ARG_OF_PERICENTER":99.1778,"MEAN_ANOMALY":260.9598,"EPHEMERIS_TYPE":0,"CLASSIFICATION_TYPE":"U","NORAD_CAT_ID":50494,"ELEMENT_SET_NO":999,"REV_AT_EPOCH":18838,"BSTAR":-5.2607257e-5,"MEAN_MOTION_DOT":-8.0e-8,"MEAN_MOTION_DDOT":0},{"OBJECT_NAME":"ONEWEB-0420","OBJECT_ID":"2021-132AC","EPOCH":"2025-10-08T06:17:24.255456","MEAN_MOTION":13.18686031,"ECCENTRICITY":0.00016393,"INCLINATION":87.9226,"RA_OF_ASC_NODE":25.4889,"ARG_OF_PERICENTER":112.3355,"MEAN_ANOMALY":247.7951,"EPHEMERIS_TYPE":0,"CLASSIFICATION_TYPE":"U","NORAD_CAT_ID":50495,"ELEMENT_SET_NO":999,"REV_AT_EPOCH":18837,"BSTAR":0.00017482662,"MEAN_MOTION_DOT":8.2e-7,"MEAN_MOTION_DDOT":0},{"OBJECT_NAME":"ONEWEB-0421","OBJECT_ID":"2021-132AD","EPOCH":"2025-10-08T06:07:53.561856","MEAN_MOTION":13.18687581,"ECCENTRICITY":0.00014712,"INCLINATION":87.9229,"RA_OF_ASC_NODE":25.4842,"ARG_OF_PERICENTER":95.3805,"MEAN_ANOMALY":264.7495,"EPHEMERIS_TYPE":0,"CLASSIFICATION_TYPE":"U","NORAD_CAT_ID":50496,"ELEMENT_SET_NO":999,"REV_AT_EPOCH":18841,"BSTAR":0.00033483421,"MEAN_MOTION_DOT":1.45e-6,"MEAN_MOTION_DDOT":0},{"OBJECT_NAME":"ONEWEB-0424","OBJECT_ID":"2021-132AE","EPOCH":"2025-10-08T07:00:08.209152","MEAN_MOTION":13.1868819,"ECCENTRICITY":0.00022212,"INCLINATION":87.9232,"RA_OF_ASC_NODE":25.472,"ARG_OF_PERICENTER":102.9429,"MEAN_ANOMALY":257.1951,"EPHEMERIS_TYPE":0,"CLASSIFICATION_TYPE":"U","NORAD_CAT_ID":50497,"ELEMENT_SET_NO":999,"REV_AT_EPOCH":18844,"BSTAR":0.0001001994,"MEAN_MOTION_DOT":5.2e-7,"MEAN_MOTION_DDOT":0},{"OBJECT_NAME":"ONEWEB-0426","OBJECT_ID":"2021-132AF","EPOCH":"2025-10-08T07:52:25.349088","MEAN_MOTION":13.18685889,"ECCENTRICITY":0.00016273,"INCLINATION":87.9227,"RA_OF_ASC_NODE":25.4562,"ARG_OF_PERICENTER":77.4905,"MEAN_ANOMALY":282.6409,"EPHEMERIS_TYPE":0,"CLASSIFICATION_TYPE":"U","NORAD_CAT_ID":50498,"ELEMENT_SET_NO":999,"REV_AT_EPOCH":18839,"BSTAR":3.9427382e-5,"MEAN_MOTION_DOT":2.8e-7,"MEAN_MOTION_DDOT":0},{"OBJECT_NAME":"ONEWEB-0427","OBJECT_ID":"2021-132AG","EPOCH":"2025-10-08T06:57:45.918720","MEAN_MOTION":13.18684275,"ECCENTRICITY":0.00019404,"INCLINATION":87.923,"RA_OF_ASC_NODE":25.4529,"ARG_OF_PERICENTER":96.1745,"MEAN_ANOMALY":263.9608,"EPHEMERIS_TYPE":0,"CLASSIFICATION_TYPE":"U","NORAD_CAT_ID":50499,"ELEMENT_SET_NO":999,"REV_AT_EPOCH":18841,"BSTAR":0.00015361798,"MEAN_MOTION_DOT":7.3e-7,"MEAN_MOTION_DDOT":0},{"OBJECT_NAME":"ONEWEB-0429","OBJECT_ID":"2021-132AH","EPOCH":"2025-10-08T06:38:46.540320","MEAN_MOTION":13.18686215,"ECCENTRICITY":0.00017503,"INCLINATION":87.9229,"RA_OF_ASC_NODE":25.4862,"ARG_OF_PERICENTER":104.9305,"MEAN_ANOMALY":255.2021,"EPHEMERIS_TYPE":0,"CLASSIFICATION_TYPE":"U","NORAD_CAT_ID":50500,"ELEMENT_SET_NO":999,"REV_AT_EPOCH":18838,"BSTAR":-7.6848373e-5,"MEAN_MOTION_DOT":-1.7e-7,"MEAN_MOTION_DDOT":0},{"OBJECT_NAME":"ONEWEB-0430","OBJECT_ID":"2021-132AJ","EPOCH":"2025-10-08T06:22:09.193152","MEAN_MOTION":13.18686224,"ECCENTRICITY":0.00019737,"INCLINATION":87.9229,"RA_OF_ASC_NODE":25.4829,"ARG_OF_PERICENTER":106.2638,"MEAN_ANOMALY":253.8712,"EPHEMERIS_TYPE":0,"CLASSIFICATION_TYPE":"U","NORAD_CAT_ID":50501,"ELEMENT_SET_NO":999,"REV_AT_EPOCH":18842,"BSTAR":0.00011686725,"MEAN_MOTION_DOT":5.9e-7,"MEAN_MOTION_DDOT":0},{"OBJECT_NAME":"ONEWEB-0432","OBJECT_ID":"2021-132AK","EPOCH":"2025-10-08T07:07:20.536608","MEAN_MOTION":13.18693465,"ECCENTRICITY":0.00026861,"INCLINATION":87.9222,"RA_OF_ASC_NODE":25.4528,"ARG_OF_PERICENTER":91.0932,"MEAN_ANOMALY":269.0508,"EPHEMERIS_TYPE":0,"CLASSIFICATION_TYPE":"U","NORAD_CAT_ID":50502,"ELEMENT_SET_NO":999,"REV_AT_EPOCH":18838,"BSTAR":5.6119214e-5,"MEAN_MOTION_DOT":3.5e-7,"MEAN_MOTION_DDOT":0},{"OBJECT_NAME":"ONEWEB-0440","OBJECT_ID":"2021-132AL","EPOCH":"2025-10-08T06:50:37.880160","MEAN_MOTION":13.1868821,"ECCENTRICITY":0.00013794,"INCLINATION":87.9232,"RA_OF_ASC_NODE":25.469,"ARG_OF_PERICENTER":103.9536,"MEAN_ANOMALY":256.175,"EPHEMERIS_TYPE":0,"CLASSIFICATION_TYPE":"U","NORAD_CAT_ID":50503,"ELEMENT_SET_NO":999,"REV_AT_EPOCH":18837,"BSTAR":0.00017830302,"MEAN_MOTION_DOT":8.3e-7,"MEAN_MOTION_DDOT":0},{"OBJECT_NAME":"ONEWEB-0450","OBJECT_ID":"2021-132AM","EPOCH":"2025-10-08T06:41:19.825152","MEAN_MOTION":13.1868441,"ECCENTRICITY":0.00018127,"INCLINATION":87.9227,"RA_OF_ASC_NODE":25.4946,"ARG_OF_PERICENTER":109.6643,"MEAN_ANOMALY":250.4685,"EPHEMERIS_TYPE":0,"CLASSIFICATION_TYPE":"U","NORAD_CAT_ID":50504,"ELEMENT_SET_NO":999,"REV_AT_EPOCH":18840,"BSTAR":8.5097989e-5,"MEAN_MOTION_DOT":4.6e-7,"MEAN_MOTION_DDOT":0},{"OBJECT_NAME":"ONEWEB-0410","OBJECT_ID":"2022-012A","EPOCH":"2025-10-08T02:37:15.628224","MEAN_MOTION":13.17649119,"ECCENTRICITY":0.00024359,"INCLINATION":87.9097,"RA_OF_ASC_NODE":55.9695,"ARG_OF_PERICENTER":61.1004,"MEAN_ANOMALY":299.0371,"EPHEMERIS_TYPE":0,"CLASSIFICATION_TYPE":"U","NORAD_CAT_ID":51622,"ELEMENT_SET_NO":999,"REV_AT_EPOCH":18050,"BSTAR":3.1254949e-5,"MEAN_MOTION_DOT":2.5e-7,"MEAN_MOTION_DDOT":0}]
